{
  "norad_id": 62116,
  "name": "STARLINK-32502",
  "history": [
    {
      "epoch": "2026-03-28T21:16:56.774208Z",
      "apogee_km": 483.80115966665653,
      "perigee_km": 482.18577510941395,
      "latitude_deg": -1.1153236549268927e-05,
      "longitude_deg": -117.65814565528707,
      "height_km": 482.8314740312372,
      "semi_major_axis_km": 6861.130467388035,
      "eccentricity": 0.00011772,
      "inclination_deg": 43.0037,
      "raan_deg": 27.8792,
      "arg_perigee_deg": 265.6621,
      "mean_anomaly_deg": 94.4096,
      "mean_motion_rev_day": 15.27598578
    },
    {
      "epoch": "2026-03-29T03:33:33.867360Z",
      "apogee_km": 483.7405887416762,
      "perigee_km": 482.1227487495862,
      "latitude_deg": -4.1210727288397204e-05,
      "longitude_deg": 146.45348151309176,
      "height_km": 482.6856155938014,
      "semi_major_axis_km": 6861.068668745631,
      "eccentricity": 0.0001179,
      "inclination_deg": 43.0028,
      "raan_deg": 26.4032,
      "arg_perigee_deg": 271.6211,
      "mean_anomaly_deg": 88.4505,
      "mean_motion_rev_day": 15.27619217
    },
    {
      "epoch": "2026-03-30T04:40:03.931680Z",
      "apogee_km": 483.91855358866087,
      "perigee_km": 482.03449181532596,
      "latitude_deg": -2.848408853090761e-05,
      "longitude_deg": 122.88906439886529,
      "height_km": 482.45419462749385,
      "semi_major_axis_km": 6861.113522701993,
      "eccentricity": 0.0001373,
      "inclination_deg": 43.0031,
      "raan_deg": 20.4952,
      "arg_perigee_deg": 288.5273,
      "mean_anomaly_deg": 71.5429,
      "mean_motion_rev_day": 15.27604237
    },
    {
      "epoch": "2026-03-30T04:40:03.932544Z",
      "apogee_km": 483.91869081093137,
      "perigee_km": 482.0343545930564,
      "latitude_deg": -2.699243325237938e-05,
      "longitude_deg": 122.88906237960069,
      "height_km": 482.45415103033645,
      "semi_major_axis_km": 6861.113522701993,
      "eccentricity": 0.00013732,
      "inclination_deg": 43.0031,
      "raan_deg": 20.4952,
      "arg_perigee_deg": 288.5273,
      "mean_anomaly_deg": 71.5429,
      "mean_motion_rev_day": 15.27604237
    },
    {
      "epoch": "2026-03-30T12:30:50.882400Z",
      "apogee_km": 484.0130460568007,
      "perigee_km": 481.9829734301193,
      "latitude_deg": 4.211968762368447e-05,
      "longitude_deg": 3.023172885184818,
      "height_km": 482.831281322523,
      "semi_major_axis_km": 6861.13500974346,
      "eccentricity": 0.00014794,
      "inclination_deg": 43.0025,
      "raan_deg": 18.6471,
      "arg_perigee_deg": 266.8237,
      "mean_anomaly_deg": 93.2446,
      "mean_motion_rev_day": 15.27597061
    },
    {
      "epoch": "2026-03-30T20:21:38.239200Z",
      "apogee_km": 484.08322902823784,
      "perigee_km": 482.0348875569953,
      "latitude_deg": 2.933454233747561e-05,
      "longitude_deg": -116.84150418311191,
      "height_km": 482.94420895278455,
      "semi_major_axis_km": 6861.196058292616,
      "eccentricity": 0.00014927,
      "inclination_deg": 43.0034,
      "raan_deg": 16.802,
      "arg_perigee_deg": 263.9458,
      "mean_anomaly_deg": 96.1224,
      "mean_motion_rev_day": 15.27576673
    },
    {
      "epoch": "2026-03-31T12:03:12.947616Z",
      "apogee_km": 483.72787975449137,
      "perigee_km": 482.412449116925,
      "latitude_deg": 2.362719501351857e-05,
      "longitude_deg": 3.426884647067067,
      "height_km": 482.6173730602039,
      "semi_major_axis_km": 6861.207164435707,
      "eccentricity": 9.586e-05,
      "inclination_deg": 43.0034,
      "raan_deg": 13.1095,
      "arg_perigee_deg": 290.4194,
      "mean_anomaly_deg": 69.6555,
      "mean_motion_rev_day": 15.27572964
    },
    {
      "epoch": "2026-04-01T11:35:33.866304Z",
      "apogee_km": 484.27757018998636,
      "perigee_km": 481.77187392909036,
      "latitude_deg": 3.6663889622176704e-05,
      "longitude_deg": 3.8344203468587112,
      "height_km": 482.76935485170543,
      "semi_major_axis_km": 6861.161722059538,
      "eccentricity": 0.0001826,
      "inclination_deg": 43.0029,
      "raan_deg": 7.5709,
      "arg_perigee_deg": 271.4971,
      "mean_anomaly_deg": 88.5672,
      "mean_motion_rev_day": 15.2758814
    },
    {
      "epoch": "2026-04-02T18:58:40.619424Z",
      "apogee_km": 483.19702368581693,
      "perigee_km": 482.69410633380267,
      "latitude_deg": -2.460596497597416e-05,
      "longitude_deg": -115.61832654134697,
      "height_km": 482.4750835110559,
      "semi_major_axis_km": 6861.0825650098095,
      "eccentricity": 3.665e-05,
      "inclination_deg": 43.0003,
      "raan_deg": 0.1853,
      "arg_perigee_deg": 12.0926,
      "mean_anomaly_deg": 347.9934,
      "mean_motion_rev_day": 15.27614576
    },
    {
      "epoch": "2026-04-03T18:31:01.454304Z",
      "apogee_km": 483.6007004148214,
      "perigee_km": 482.6332636033576,
      "latitude_deg": 1.8743037689755857e-05,
      "longitude_deg": -115.21060956610265,
      "height_km": 483.364275503098,
      "semi_major_axis_km": 6861.253982009089,
      "eccentricity": 7.05e-05,
      "inclination_deg": 43.002,
      "raan_deg": 354.6465,
      "arg_perigee_deg": 192.8676,
      "mean_anomaly_deg": 167.2158,
      "mean_motion_rev_day": 15.27557329
    },
    {
      "epoch": "2026-04-04T18:03:22.630464Z",
      "apogee_km": 483.872195484063,
      "perigee_km": 482.0773286471076,
      "latitude_deg": -3.826412821193438e-05,
      "longitude_deg": -114.80432632276049,
      "height_km": 483.2794487888613,
      "semi_major_axis_km": 6861.111762065585,
      "eccentricity": 0.0001308,
      "inclination_deg": 43.002,
      "raan_deg": 349.1078,
      "arg_perigee_deg": 233.9504,
      "mean_anomaly_deg": 126.1226,
      "mean_motion_rev_day": 15.27604825
    },
    {
      "epoch": "2026-04-05T09:44:57.351840Z",
      "apogee_km": 484.2356446726044,
      "perigee_km": 481.91065500123113,
      "latitude_deg": 6.512440132097992e-05,
      "longitude_deg": 5.463922849264311,
      "height_km": 483.0995065712155,
      "semi_major_axis_km": 6861.2101498369175,
      "eccentricity": 0.00016943,
      "inclination_deg": 43.0033,
      "raan_deg": 345.4151,
      "arg_perigee_deg": 257.6256,
      "mean_anomaly_deg": 102.4407,
      "mean_motion_rev_day": 15.27571967
    },
    {
      "epoch": "2026-04-06T01:26:29.444064Z",
      "apogee_km": 483.56744181213435,
      "perigee_km": 481.9765342359915,
      "latitude_deg": -4.610472799920033e-05,
      "longitude_deg": 125.74292770707102,
      "height_km": 482.63959989779516,
      "semi_major_axis_km": 6860.908988024063,
      "eccentricity": 0.00011594,
      "inclination_deg": 43.0005,
      "raan_deg": 341.7224,
      "arg_perigee_deg": 263.4251,
      "mean_anomaly_deg": 96.6468,
      "mean_motion_rev_day": 15.27672548
    },
    {
      "epoch": "2026-04-07T15:06:16.045632Z",
      "apogee_km": 483.8375291796701,
      "perigee_km": 482.2649448357479,
      "latitude_deg": -4.1490627678172836e-05,
      "longitude_deg": -89.61130693295857,
      "height_km": 482.5215986521076,
      "semi_major_axis_km": 6861.188237007708,
      "eccentricity": 0.0001146,
      "inclination_deg": 43.0014,
      "raan_deg": 332.8591,
      "arg_perigee_deg": 292.9226,
      "mean_anomaly_deg": 67.1504,
      "mean_motion_rev_day": 15.27579285
    },
    {
      "epoch": "2026-04-07T15:06:16.046496Z",
      "apogee_km": 483.837666403434,
      "perigee_km": 482.2648076119831,
      "latitude_deg": -4.0041553328125864e-05,
      "longitude_deg": -89.61120899753773,
      "height_km": 482.5215452126289,
      "semi_major_axis_km": 6861.188237007708,
      "eccentricity": 0.00011462,
      "inclination_deg": 43.0014,
      "raan_deg": 332.8592,
      "arg_perigee_deg": 292.9226,
      "mean_anomaly_deg": 67.1504,
      "mean_motion_rev_day": 15.27579285
    },
    {
      "epoch": "2026-04-08T08:21:59.846112Z",
      "apogee_km": 483.9054699601338,
      "perigee_km": 482.1816669541149,
      "latitude_deg": -3.479777580148594e-05,
      "longitude_deg": 6.686664033370487,
      "height_km": 482.2919866941044,
      "semi_major_axis_km": 6861.1805684571245,
      "eccentricity": 0.00012562,
      "inclination_deg": 42.9953,
      "raan_deg": 328.7985,
      "arg_perigee_deg": 52.4355,
      "mean_anomaly_deg": 307.661,
      "mean_motion_rev_day": 15.27581846
    },
    {
      "epoch": "2026-04-09T07:54:20.319840Z",
      "apogee_km": 483.28624037475765,
      "perigee_km": 482.8124068472489,
      "latitude_deg": 3.694786653804348e-05,
      "longitude_deg": 7.093017160374954,
      "height_km": 482.59944214526575,
      "semi_major_axis_km": 6861.186323611003,
      "eccentricity": 3.453e-05,
      "inclination_deg": 43.0012,
      "raan_deg": 323.2568,
      "arg_perigee_deg": 342.1858,
      "mean_anomaly_deg": 17.8982,
      "mean_motion_rev_day": 15.27579924
    },
    {
      "epoch": "2026-04-09T23:35:53.737440Z",
      "apogee_km": 483.4723694520426,
      "perigee_km": 482.548035700911,
      "latitude_deg": -2.6008144122474306e-05,
      "longitude_deg": 127.36813528382598,
      "height_km": 482.65946404742044,
      "semi_major_axis_km": 6861.147202576476,
      "eccentricity": 6.736e-05,
      "inclination_deg": 43.0015,
      "raan_deg": 319.5657,
      "arg_perigee_deg": 285.9452,
      "mean_anomaly_deg": 74.1325,
      "mean_motion_rev_day": 15.27592989
    },
    {
      "epoch": "2026-04-11T14:49:48.434016Z",
      "apogee_km": 484.93209761533217,
      "perigee_km": 481.12003541557624,
      "latitude_deg": 7.036803893014991e-06,
      "longitude_deg": -111.95333051920429,
      "height_km": 482.36227339976523,
      "semi_major_axis_km": 6861.1630665154535,
      "eccentricity": 0.0002778,
      "inclination_deg": 43.0027,
      "raan_deg": 310.3333,
      "arg_perigee_deg": 283.4031,
      "mean_anomaly_deg": 76.6511,
      "mean_motion_rev_day": 15.27587691
    }
  ]
}